[
    {
        "Altitude(m)": 607897.6208772793,
        "Argument of Periapsis(deg)": 0.0,
        "Eccentricity": 0.0,
        "Inclination(deg)": 60.0,
        "Latitude(deg)": -14.292969714515682,
        "Longitude(deg)": 16.618783917803565,
        "Mean Anomaly(deg)": -16.363600000000037,
        "RAAN(deg)": 125.00000000000001,
        "Satellite Name": "Test1 571",
        "Satellite Number": 571,
        "Semi-Major Axis(m)": 6980739.136638005,
        "Time(s)": 0
    },
    {
        "Altitude(m)": 607750.8218500785,
        "Argument of Periapsis(deg)": 0.00010418945913296404,
        "Eccentricity": 0.0,
        "Inclination(deg)": 60.0,
        "Latitude(deg)": -13.758810543077464,
        "Longitude(deg)": 16.905851766865194,
        "Mean Anomaly(deg)": -15.743493854538185,
        "RAAN(deg)": 124.99957995086027,
        "Satellite Name": "Test1 571",
        "Satellite Number": 571,
        "Semi-Major Axis(m)": 6980739.136638005,
        "Time(s)": 10
    }
]